OBJECT_NAME,OBJECT_ID,EPOCH,MEAN_MOTION,ECCENTRICITY,INCLINATION,RA_OF_ASC_NODE,ARG_OF_PERICENTER,MEAN_ANOMALY,EPHEMERIS_TYPE,CLASSIFICATION_TYPE,NORAD_CAT_ID,ELEMENT_SET_NO,REV_AT_EPOCH,BSTAR,MEAN_MOTION_DOT,MEAN_MOTION_DDOT
HORS 1,2023-091Y,2026-06-25T04:07:21.563040,15.26849877,.0010079,97.5070,239.7944,70.4935,289.7391,0,U,57188,999,16553,.45117E-3,.11851E-3,0
VIZARD-METEO (RS38S),2023-091Z,2026-06-25T03:50:16.300896,15.36256949,.0007704,97.5094,245.8054,53.3791,306.8160,0,U,57189,999,16591,.58426E-3,.20615E-3,0
SITRO-AIS 6 (CHIRKIN),2023-091AC,2026-06-25T04:18:46.574208,15.26073557,.0012938,97.5070,239.2318,81.8224,278.4481,0,U,57192,999,16550,.49347E-3,.12682E-3,0
SITRO-AIS 8 (ANOKHIN),2023-091AD,2026-06-25T04:26:43.504800,15.32331964,.0011495,97.5059,241.7822,75.1412,285.1102,0,U,57193,999,16567,.5281E-3,.16456E-3,0
SITRO-AIS 7 (FARTUSHNIY),2023-091AE,2026-06-25T04:25:40.405152,15.25758337,.0012814,97.5067,239.0575,82.6993,277.5701,0,U,57194,999,16549,.50258E-3,.12795E-3,0
AVION KALUGA 650,2023-091AF,2026-06-25T04:35:52.435104,15.20429477,.0011876,97.5090,235.7355,85.3191,274.9401,0,U,57195,999,16524,.30912E-3,.6685E-4,0
HORS 2,2023-091AG,2026-06-25T04:45:26.921664,15.32074415,.0008856,97.5091,243.3373,63.7925,296.4226,0,U,57196,999,16575,.52828E-3,.16316E-3,0
A-SEANSAT-PG1,2023-091AH,2026-06-25T03:34:14.248128,15.37210486,.0007726,97.5083,245.9006,60.9429,299.2588,0,U,57197,999,16593,.60586E-3,.22051E-3,0
SITRO-AIS 10 (BURDAEV),2023-091AK,2026-06-25T04:23:26.009088,15.38889998,.0006899,97.5083,246.9172,55.6453,304.5443,0,U,57199,999,16599,.64149E-3,.24665E-3,0
SITRO-AIS 9 (SHCHUKIN),2023-091AM,2026-06-25T03:31:29.293248,15.38388238,.0007161,97.5082,246.6038,56.0780,304.1145,0,U,57201,999,16597,.6271E-3,.23717E-3,0
UTMN 2 (RS27S),2023-091AP,2026-06-25T03:49:24.655296,15.32228623,.0008788,97.5090,243.4911,59.7335,300.4775,0,U,57203,999,16576,.48674E-3,.15097E-3,0
SITRO-AIS 12 (SMIRENNIY),2023-091AQ,2026-06-25T03:15:47.873664,15.38682104,.0006656,97.5094,247.0648,50.9906,309.1931,0,U,57204,999,16599,.61756E-3,.23576E-3,0
SITRO-AIS 11 (SHEFFER),2023-091AU,2026-06-25T03:31:56.357184,15.39110802,.0006548,97.5092,247.3281,50.6344,309.5480,0,U,57208,999,16601,.64074E-3,.24813E-3,0
H2SAT (HEINRICH HERTZ),2023-093A,2026-06-25T04:02:52.281024,1.00269945,.0000838,0.0478,107.4966,16.8507,210.3752,0,U,57213,999,1099,0,.11E-6,0
KUZGTU 1 (RS47S),2023-091AV,2026-06-25T03:27:42.455232,15.30024033,.0011992,97.5067,240.7054,73.4358,286.8199,0,U,57217,999,16559,.5247E-3,.15217E-3,0
QIANKUN-1,2023-103B,2026-06-24T03:24:20.703456,16.07644797,.00336534,96.1516,219.4975,146.3074,214.0360,0,U,57422,999,16841,.35190923E-4,.29952E-3,.2050203E-5
FENGYUN 3F,2023-111A,2026-06-25T03:33:23.486400,14.19940258,.0001562,98.6834,246.0086,87.1875,272.9480,0,U,57490,999,14999,.3408E-4,.29E-6,0
HJ-2F,2023-116A,2026-06-25T04:56:11.431968,15.22423757,.000899,97.3844,181.2846,27.6714,332.4999,0,U,57519,999,15997,.35914E-3,.8244E-4,0
XRISM,2023-137A,2026-06-23T18:57:39.807648,15.12515318,.00078456,31.0028,316.8302,30.1498,329.9592,0,U,57800,999,15386,.20168132E-3,.37E-4,0
METEOR-M2 4,2024-039A,2026-06-25T04:51:29.416320,14.22430328,.0007723,98.7013,135.3998,139.3163,220.8592,0,U,59051,999,12040,.24997E-4,.12E-6,0
GRBBETA,2024-128C,2026-06-25T04:25:08.800032,15.06681375,.0039614,61.9880,188.2076,136.3498,224.0740,0,U,60237,999,10747,.23181E-3,.3299E-4,0
TRANSPORTER-11 OBJECT A,2024-149A,2026-06-25T04:22:37.630272,15.33025007,.0003607,97.3731,256.0873,167.2224,192.9110,0,U,60468,999,10328,.3222E-3,.10205E-3,0
WARATAH SEED-1,2024-149B,2026-06-25T04:32:17.763072,15.36127247,.0002216,97.3691,256.7716,158.5761,201.5576,0,U,60469,999,10334,.44504E-3,.15597E-3,0
PHISAT 2,2024-149C,2026-06-25T03:37:46.991712,15.31158544,.0001867,97.3756,255.3233,158.0197,202.1124,0,U,60470,999,10321,.26142E-3,.7792E-4,0
LEMUR-2-TOMATOKECHUP,2024-149D,2026-06-25T04:26:19.648896,15.36183236,.0002138,97.3802,258.2524,160.3945,199.7382,0,U,60471,999,10339,.36462E-3,.12782E-3,0
CONNECTA IOT-1,2024-149E,2026-06-25T04:10:50.096352,15.23595578,.0000899,97.3758,252.3306,191.3012,168.8205,0,U,60472,999,10301,.18166E-3,.4277E-4,0
LOPEN,2024-149F,2026-06-25T04:31:41.875104,15.39896844,.0001539,97.3779,259.6196,167.6990,192.4294,0,U,60473,999,10349,.45863E-3,.18174E-3,0
ROCK,2024-149G,2026-06-25T04:12:24.478848,15.39889273,.0001861,97.3771,259.6211,169.7687,190.3597,0,U,60474,999,10349,.45109E-3,.17868E-3,0
CONNECTA IOT-3,2024-149H,2026-06-25T04:41:31.460064,15.23607986,.0002004,97.3735,252.1027,204.4001,155.7141,0,U,60475,999,10302,.18842E-3,.4441E-4,0
