HORS 1                  
1 57188U 23091Y   26176.17177735  .00011851  00000+0  45117-3 0  9990
2 57188  97.5070 239.7944 0010079  70.4935 289.7391 15.26849877165538
VIZARD-METEO (RS38S)    
1 57189U 23091Z   26176.15991089  .00020615  00000+0  58426-3 0  9990
2 57189  97.5094 245.8054 0007704  53.3791 306.8160 15.36256949165916
SITRO-AIS 6 (CHIRKIN)   
1 57192U 23091AC  26176.17970572  .00012682  00000+0  49347-3 0  9997
2 57192  97.5070 239.2318 0012938  81.8224 278.4481 15.26073557165502
SITRO-AIS 8 (ANOKHIN)   
1 57193U 23091AD  26176.18522575  .00016456  00000+0  52810-3 0  9997
2 57193  97.5059 241.7822 0011495  75.1412 285.1102 15.32331964165679
SITRO-AIS 7 (FARTUSHNIY)
1 57194U 23091AE  26176.18449543  .00012795  00000+0  50258-3 0  9997
2 57194  97.5067 239.0575 0012814  82.6993 277.5701 15.25758337165496
AVION KALUGA 650        
1 57195U 23091AF  26176.19157911  .00006685  00000+0  30912-3 0  9990
2 57195  97.5090 235.7355 0011876  85.3191 274.9401 15.20429477165245
HORS 2                  
1 57196U 23091AG  26176.19822826  .00016316  00000+0  52828-3 0  9997
2 57196  97.5091 243.3373 0008856  63.7925 296.4226 15.32074415165752
A-SEANSAT-PG1           
1 57197U 23091AH  26176.14877602  .00022051  00000+0  60586-3 0  9998
2 57197  97.5083 245.9006 0007726  60.9429 299.2588 15.37210486165935
SITRO-AIS 10 (BURDAEV)  
1 57199U 23091AK  26176.18293992  .00024665  00000+0  64149-3 0  9990
2 57199  97.5083 246.9172 0006899  55.6453 304.5443 15.38889998165997
SITRO-AIS 9 (SHCHUKIN)  
1 57201U 23091AM  26176.14686682  .00023717  00000+0  62710-3 0  9991
2 57201  97.5082 246.6038 0007161  56.0780 304.1145 15.38388238165973
UTMN 2 (RS27S)          
1 57203U 23091AP  26176.15931314  .00015097  00000+0  48674-3 0  9994
2 57203  97.5090 243.4911 0008788  59.7335 300.4775 15.32228623165761
SITRO-AIS 12 (SMIRENNIY)
1 57204U 23091AQ  26176.13597076  .00023576  00000+0  61756-3 0  9993
2 57204  97.5094 247.0648 0006656  50.9906 309.1931 15.38682104165991
SITRO-AIS 11 (SHEFFER)  
1 57208U 23091AU  26176.14718006  .00024813  00000+0  64074-3 0  9997
2 57208  97.5092 247.3281 0006548  50.6344 309.5480 15.39110802166011
H2SAT (HEINRICH HERTZ)  
1 57213U 23093A   26176.16866066  .00000011  00000+0  00000+0 0  9996
2 57213   0.0478 107.4966 0000838  16.8507 210.3752  1.00269945 10993
KUZGTU 1 (RS47S)        
1 57217U 23091AV  26176.14424138  .00015217  00000+0  52470-3 0  9992
2 57217  97.5067 240.7054 0011992  73.4358 286.8199 15.30024033165592
QIANKUN-1               
1 57422U 23103B   26175.14190629  .00029952  20502-5  35191-4 0  9996
2 57422  96.1516 219.4975 0033653 146.3074 214.0360 16.07644797168419
FENGYUN 3F              
1 57490U 23111A   26176.14818850  .00000029  00000+0  34080-4 0  9999
2 57490  98.6834 246.0086 0001562  87.1875 272.9480 14.19940258149998
HJ-2F                   
1 57519U 23116A   26176.20568787  .00008244  00000+0  35914-3 0  9997
2 57519  97.3844 181.2846 0008990  27.6714 332.4999 15.22423757159975
XRISM                   
1 57800U 23137A   26174.79004407  .00003700  00000+0  20168-3 0  9996
2 57800  31.0028 316.8302 0007845  30.1498 329.9592 15.12515318153862
METEOR-M2 4             
1 59051U 24039A   26176.20242380  .00000012  00000+0  24997-4 0  9998
2 59051  98.7013 135.3998 0007723 139.3163 220.8592 14.22430328120407
GRBBETA                 
1 60237U 24128C   26176.18412963  .00003299  00000+0  23181-3 0  9991
2 60237  61.9880 188.2076 0039614 136.3498 224.0740 15.06681375107471
TRANSPORTER-11 OBJECT A 
1 60468U 24149A   26176.18237998  .00010205  00000+0  32220-3 0  9992
2 60468  97.3731 256.0873 0003607 167.2224 192.9110 15.33025007103280
WARATAH SEED-1          
1 60469U 24149B   26176.18909448  .00015597  00000+0  44504-3 0  9996
2 60469  97.3691 256.7716 0002216 158.5761 201.5576 15.36127247103345
PHISAT 2                
1 60470U 24149C   26176.15123833  .00007792  00000+0  26142-3 0  9997
2 60470  97.3756 255.3233 0001867 158.0197 202.1124 15.31158544103218
LEMUR-2-TOMATOKECHUP    
1 60471U 24149D   26176.18494964  .00012782  00000+0  36462-3 0  9998
2 60471  97.3802 258.2524 0002138 160.3945 199.7382 15.36183236103392
CONNECTA IOT-1          
1 60472U 24149E   26176.17419093  .00004277  00000+0  18166-3 0  9999
2 60472  97.3758 252.3306 0000899 191.3012 168.8205 15.23595578103019
LOPEN                   
1 60473U 24149F   26176.18867911  .00018174  00000+0  45863-3 0  9992
2 60473  97.3779 259.6196 0001539 167.6990 192.4294 15.39896844103493
ROCK                    
1 60474U 24149G   26176.17528332  .00017868  00000+0  45109-3 0  9995
2 60474  97.3771 259.6211 0001861 169.7687 190.3597 15.39889273103499
CONNECTA IOT-3          
1 60475U 24149H   26176.19550301  .00004441  00000+0  18842-3 0  9996
2 60475  97.3735 252.1027 0002004 204.4001 155.7141 15.23607986103021
